[{"OBJECT_NAME":"GAOFEN-9 02","OBJECT_ID":"2020-034B","EPOCH":"2026-03-10T00:01:23.433024","MEAN_MOTION":15.24736529,"ECCENTRICITY":0.00138652,"INCLINATION":97.5615,"RA_OF_ASC_NODE":225.1997,"ARG_OF_PERICENTER":60.5372,"MEAN_ANOMALY":299.7247,"EPHEMERIS_TYPE":0,"CLASSIFICATION_TYPE":"U","NORAD_CAT_ID":45625,"ELEMENT_SET_NO":999,"REV_AT_EPOCH":32104,"BSTAR":0.00036092627,"MEAN_MOTION_DOT":8.888e-5,"MEAN_MOTION_DDOT":0},{"OBJECT_NAME":"STARLINK-30778","OBJECT_ID":"2023-167H","EPOCH":"2026-03-09T06:42:40.120992","MEAN_MOTION":15.26749004,"ECCENTRICITY":0.00012543,"INCLINATION":42.9999,"RA_OF_ASC_NODE":145.6013,"ARG_OF_PERICENTER":255.6078,"MEAN_ANOMALY":104.4634,"EPHEMERIS_TYPE":0,"CLASSIFICATION_TYPE":"U","NORAD_CAT_ID":58182,"ELEMENT_SET_NO":999,"REV_AT_EPOCH":13092,"BSTAR":5.7361494e-5,"MEAN_MOTION_DOT":1.28e-5,"MEAN_MOTION_DDOT":0}]
